STARLINK-35726          
1 66280U 25247R   25330.16670139  .00019143  00000+0  48728-3 0  9997
2 66280  53.1588 315.4760 0001134  79.7217 113.5866 15.39624698  4953
STARLINK-35727          
1 66281U 25247S   25330.16670139 -.02372100  00000+0 -60799-1 0  9997
2 66281  53.1590 315.3814 0001204 111.5939 128.8709 15.42365155  4959
STARLINK-35776          
1 66282U 25247T   25330.16670139 -.02377887  00000+0 -60974-1 0  9990
2 66282  53.1593 315.3776 0001146 114.4587 127.8827 15.42361747  4959
STARLINK-35774          
1 66283U 25247U   25330.16670139 -.02057487  00000+0 -48377-1 0  9995
2 66283  53.1594 315.3470 0001520  89.5554 167.8576 15.44962370  4950
STARLINK-35830          
1 66284U 25247V   25330.16670139 -.02051181  00000+0 -48228-1 0  9996
2 66284  53.1592 315.3425 0001544  87.6788 171.6269 15.44951808  4959
STARLINK-35819          
1 66285U 25247W   25330.18322831 -.00131461  00000+0 -24616-2 0  9996
2 66285  53.1590 315.2464 0001030  94.5137 265.5989 15.48535595  5144
STARLINK-35783          
1 66286U 25247X   25330.05380272 -.00271754  00000+0 -51517-2 0  9996
2 66286  53.1590 315.8600 0000922  65.7268 294.3837 15.48742546  5123
STARLINK-34884          
1 66287U 25247Y   25330.18237970  .00037374  00000+0  67680-3 0  9992
2 66287  53.1592 315.2406 0001310  95.0116 265.1042 15.49310330  5143
STARLINK-34896          
1 66288U 25247Z   25330.18203428  .00082517  00000+0  14744-2 0  9995
2 66288  53.1592 315.2379 0001328  98.1044 262.0116 15.49340917  5148
STARLINK-35802          
1 66289U 25247AA  25330.18169076  .00055490  00000+0  99778-3 0  9997
2 66289  53.1594 315.2355 0001176 104.0555 256.0585 15.49334561  5141
STARLINK-35799          
1 66290U 25247AB  25329.98782691  .00091283  00000+0  16268-2 0  9991
2 66290  53.1603 316.1608 0001440  85.8677 274.2497 15.49368531  5160
STARLINK-35800          
1 66291U 25247AC  25330.18066095  .00046593  00000+0  84011-3 0  9995
2 66291  53.1594 315.2280 0001172 106.7820 253.3318 15.49332469  5195
