CCSDS_OMM_VERS = 2.0
CREATION_DATE  = 
ORIGINATOR     = 

OBJECT_NAME    = STARLINK-35726
OBJECT_ID      = 2025-247R
CENTER_NAME    = EARTH
REF_FRAME      = TEME
TIME_SYSTEM    = UTC
MEAN_ELEMENT_THEORY = SGP/SGP4

EPOCH          = 2025-11-26T04:00:03.000096
MEAN_MOTION    = 15.39624698
ECCENTRICITY   = .0001134
INCLINATION    = 53.1588
RA_OF_ASC_NODE = 315.4760
ARG_OF_PERICENTER = 79.7217
MEAN_ANOMALY   = 113.5866

EPHEMERIS_TYPE = 0
CLASSIFICATION_TYPE = U
NORAD_CAT_ID   = 66280
ELEMENT_SET_NO = 999
REV_AT_EPOCH   = 495
BSTAR          = .48728E-3
MEAN_MOTION_DOT = .19143E-3
MEAN_MOTION_DDOT = 0

CCSDS_OMM_VERS = 2.0
CREATION_DATE  = 
ORIGINATOR     = 

OBJECT_NAME    = STARLINK-35727
OBJECT_ID      = 2025-247S
CENTER_NAME    = EARTH
REF_FRAME      = TEME
TIME_SYSTEM    = UTC
MEAN_ELEMENT_THEORY = SGP/SGP4

EPOCH          = 2025-11-26T04:00:03.000096
MEAN_MOTION    = 15.42365155
ECCENTRICITY   = .0001204
INCLINATION    = 53.1590
RA_OF_ASC_NODE = 315.3814
ARG_OF_PERICENTER = 111.5939
MEAN_ANOMALY   = 128.8709

EPHEMERIS_TYPE = 0
CLASSIFICATION_TYPE = U
NORAD_CAT_ID   = 66281
ELEMENT_SET_NO = 999
REV_AT_EPOCH   = 495
BSTAR          = -.60799E-1
MEAN_MOTION_DOT = -.23721E-1
MEAN_MOTION_DDOT = 0

CCSDS_OMM_VERS = 2.0
CREATION_DATE  = 
ORIGINATOR     = 

OBJECT_NAME    = STARLINK-35776
OBJECT_ID      = 2025-247T
CENTER_NAME    = EARTH
REF_FRAME      = TEME
TIME_SYSTEM    = UTC
MEAN_ELEMENT_THEORY = SGP/SGP4

EPOCH          = 2025-11-26T04:00:03.000096
MEAN_MOTION    = 15.42361747
ECCENTRICITY   = .0001146
INCLINATION    = 53.1593
RA_OF_ASC_NODE = 315.3776
ARG_OF_PERICENTER = 114.4587
MEAN_ANOMALY   = 127.8827

EPHEMERIS_TYPE = 0
CLASSIFICATION_TYPE = U
NORAD_CAT_ID   = 66282
ELEMENT_SET_NO = 999
REV_AT_EPOCH   = 495
BSTAR          = -.60974E-1
MEAN_MOTION_DOT = -.2377887E-1
MEAN_MOTION_DDOT = 0

CCSDS_OMM_VERS = 2.0
CREATION_DATE  = 
ORIGINATOR     = 

OBJECT_NAME    = STARLINK-35774
OBJECT_ID      = 2025-247U
CENTER_NAME    = EARTH
REF_FRAME      = TEME
TIME_SYSTEM    = UTC
MEAN_ELEMENT_THEORY = SGP/SGP4

EPOCH          = 2025-11-26T04:00:03.000096
MEAN_MOTION    = 15.44962370
ECCENTRICITY   = .000152
INCLINATION    = 53.1594
RA_OF_ASC_NODE = 315.3470
ARG_OF_PERICENTER = 89.5554
MEAN_ANOMALY   = 167.8576

EPHEMERIS_TYPE = 0
CLASSIFICATION_TYPE = U
NORAD_CAT_ID   = 66283
ELEMENT_SET_NO = 999
REV_AT_EPOCH   = 495
BSTAR          = -.48377E-1
MEAN_MOTION_DOT = -.2057487E-1
MEAN_MOTION_DDOT = 0

CCSDS_OMM_VERS = 2.0
CREATION_DATE  = 
ORIGINATOR     = 

OBJECT_NAME    = STARLINK-35830
OBJECT_ID      = 2025-247V
CENTER_NAME    = EARTH
REF_FRAME      = TEME
TIME_SYSTEM    = UTC
MEAN_ELEMENT_THEORY = SGP/SGP4

EPOCH          = 2025-11-26T04:00:03.000096
MEAN_MOTION    = 15.44951808
ECCENTRICITY   = .0001544
INCLINATION    = 53.1592
RA_OF_ASC_NODE = 315.3425
ARG_OF_PERICENTER = 87.6788
MEAN_ANOMALY   = 171.6269

EPHEMERIS_TYPE = 0
CLASSIFICATION_TYPE = U
NORAD_CAT_ID   = 66284
ELEMENT_SET_NO = 999
REV_AT_EPOCH   = 495
BSTAR          = -.48228E-1
MEAN_MOTION_DOT = -.2051181E-1
MEAN_MOTION_DDOT = 0

CCSDS_OMM_VERS = 2.0
CREATION_DATE  = 
ORIGINATOR     = 

OBJECT_NAME    = STARLINK-35819
OBJECT_ID      = 2025-247W
CENTER_NAME    = EARTH
REF_FRAME      = TEME
TIME_SYSTEM    = UTC
MEAN_ELEMENT_THEORY = SGP/SGP4

EPOCH          = 2025-11-26T04:23:50.925984
MEAN_MOTION    = 15.48535595
ECCENTRICITY   = .000103
INCLINATION    = 53.1590
RA_OF_ASC_NODE = 315.2464
ARG_OF_PERICENTER = 94.5137
MEAN_ANOMALY   = 265.5989

EPHEMERIS_TYPE = 0
CLASSIFICATION_TYPE = U
NORAD_CAT_ID   = 66285
ELEMENT_SET_NO = 999
REV_AT_EPOCH   = 514
BSTAR          = -.24616E-2
MEAN_MOTION_DOT = -.131461E-2
MEAN_MOTION_DDOT = 0

CCSDS_OMM_VERS = 2.0
CREATION_DATE  = 
ORIGINATOR     = 

OBJECT_NAME    = STARLINK-35783
OBJECT_ID      = 2025-247X
CENTER_NAME    = EARTH
REF_FRAME      = TEME
TIME_SYSTEM    = UTC
MEAN_ELEMENT_THEORY = SGP/SGP4

EPOCH          = 2025-11-26T01:17:28.555008
MEAN_MOTION    = 15.48742546
ECCENTRICITY   = .0000922
INCLINATION    = 53.1590
RA_OF_ASC_NODE = 315.8600
ARG_OF_PERICENTER = 65.7268
MEAN_ANOMALY   = 294.3837

EPHEMERIS_TYPE = 0
CLASSIFICATION_TYPE = U
NORAD_CAT_ID   = 66286
ELEMENT_SET_NO = 999
REV_AT_EPOCH   = 512
BSTAR          = -.51517E-2
MEAN_MOTION_DOT = -.271754E-2
MEAN_MOTION_DDOT = 0

CCSDS_OMM_VERS = 2.0
CREATION_DATE  = 
ORIGINATOR     = 

OBJECT_NAME    = STARLINK-34884
OBJECT_ID      = 2025-247Y
CENTER_NAME    = EARTH
REF_FRAME      = TEME
TIME_SYSTEM    = UTC
MEAN_ELEMENT_THEORY = SGP/SGP4

EPOCH          = 2025-11-26T04:22:37.606080
MEAN_MOTION    = 15.49310330
ECCENTRICITY   = .000131
INCLINATION    = 53.1592
RA_OF_ASC_NODE = 315.2406
ARG_OF_PERICENTER = 95.0116
MEAN_ANOMALY   = 265.1042

EPHEMERIS_TYPE = 0
CLASSIFICATION_TYPE = U
NORAD_CAT_ID   = 66287
ELEMENT_SET_NO = 999
REV_AT_EPOCH   = 514
BSTAR          = .6768E-3
MEAN_MOTION_DOT = .37374E-3
MEAN_MOTION_DDOT = 0

CCSDS_OMM_VERS = 2.0
CREATION_DATE  = 
ORIGINATOR     = 

OBJECT_NAME    = STARLINK-34896
OBJECT_ID      = 2025-247Z
CENTER_NAME    = EARTH
REF_FRAME      = TEME
TIME_SYSTEM    = UTC
MEAN_ELEMENT_THEORY = SGP/SGP4

EPOCH          = 2025-11-26T04:22:07.761792
MEAN_MOTION    = 15.49340917
ECCENTRICITY   = .0001328
INCLINATION    = 53.1592
RA_OF_ASC_NODE = 315.2379
ARG_OF_PERICENTER = 98.1044
MEAN_ANOMALY   = 262.0116

EPHEMERIS_TYPE = 0
CLASSIFICATION_TYPE = U
NORAD_CAT_ID   = 66288
ELEMENT_SET_NO = 999
REV_AT_EPOCH   = 514
BSTAR          = .14744E-2
MEAN_MOTION_DOT = .82517E-3
MEAN_MOTION_DDOT = 0

CCSDS_OMM_VERS = 2.0
CREATION_DATE  = 
ORIGINATOR     = 

OBJECT_NAME    = STARLINK-35802
OBJECT_ID      = 2025-247AA
CENTER_NAME    = EARTH
REF_FRAME      = TEME
TIME_SYSTEM    = UTC
MEAN_ELEMENT_THEORY = SGP/SGP4

EPOCH          = 2025-11-26T04:21:38.081664
MEAN_MOTION    = 15.49334561
ECCENTRICITY   = .0001176
INCLINATION    = 53.1594
RA_OF_ASC_NODE = 315.2355
ARG_OF_PERICENTER = 104.0555
MEAN_ANOMALY   = 256.0585

EPHEMERIS_TYPE = 0
CLASSIFICATION_TYPE = U
NORAD_CAT_ID   = 66289
ELEMENT_SET_NO = 999
REV_AT_EPOCH   = 514
BSTAR          = .99778E-3
MEAN_MOTION_DOT = .5549E-3
MEAN_MOTION_DDOT = 0

CCSDS_OMM_VERS = 2.0
CREATION_DATE  = 
ORIGINATOR     = 

OBJECT_NAME    = STARLINK-35799
OBJECT_ID      = 2025-247AB
CENTER_NAME    = EARTH
REF_FRAME      = TEME
TIME_SYSTEM    = UTC
MEAN_ELEMENT_THEORY = SGP/SGP4

EPOCH          = 2025-11-25T23:42:28.245024
MEAN_MOTION    = 15.49368531
ECCENTRICITY   = .000144
INCLINATION    = 53.1603
RA_OF_ASC_NODE = 316.1608
ARG_OF_PERICENTER = 85.8677
MEAN_ANOMALY   = 274.2497

EPHEMERIS_TYPE = 0
CLASSIFICATION_TYPE = U
NORAD_CAT_ID   = 66290
ELEMENT_SET_NO = 999
REV_AT_EPOCH   = 516
BSTAR          = .16268E-2
MEAN_MOTION_DOT = .91283E-3
MEAN_MOTION_DDOT = 0

CCSDS_OMM_VERS = 2.0
CREATION_DATE  = 
ORIGINATOR     = 

OBJECT_NAME    = STARLINK-35800
OBJECT_ID      = 2025-247AC
CENTER_NAME    = EARTH
REF_FRAME      = TEME
TIME_SYSTEM    = UTC
MEAN_ELEMENT_THEORY = SGP/SGP4

EPOCH          = 2025-11-26T04:20:09.106080
MEAN_MOTION    = 15.49332469
ECCENTRICITY   = .0001172
INCLINATION    = 53.1594
RA_OF_ASC_NODE = 315.2280
ARG_OF_PERICENTER = 106.7820
MEAN_ANOMALY   = 253.3318

EPHEMERIS_TYPE = 0
CLASSIFICATION_TYPE = U
NORAD_CAT_ID   = 66291
ELEMENT_SET_NO = 999
REV_AT_EPOCH   = 519
BSTAR          = .84011E-3
MEAN_MOTION_DOT = .46593E-3
MEAN_MOTION_DDOT = 0

